{"type": "FeatureCollection", "features": [ {"type": "Feature", "properties": {"norad_id": 66887, "name": "STARLINK-35925", "group": "last-30-days", "lat": 0.44091135191238046, "lon": 43.591194102869416, "alt_km": 336.8024834539601, "timestamp": "2025-12-18T19:29:51.287954+00:00", "meta": {"OBJECT_NAME": "STARLINK-35925", "OBJECT_ID": "2025-283K", "EPOCH": "2025-12-18T06:00:02.999808", "MEAN_MOTION": 15.79792615, "ECCENTRICITY": 6.349e-05, "INCLINATION": 53.1554, "RA_OF_ASC_NODE": 46.0719, "ARG_OF_PERICENTER": 87.4211, "MEAN_ANOMALY": 314.8449, "EPHEMERIS_TYPE": 0, "CLASSIFICATION_TYPE": "U", "NORAD_CAT_ID": 66887, "ELEMENT_SET_NO": 999, "REV_AT_EPOCH": 331, "BSTAR": -0.0085423992, "MEAN_MOTION_DOT": -0.01424216, "MEAN_MOTION_DDOT": 0}, "tle": {"line1": "1 66887U 25283K   25352.25003472 -.01424216  00000+0 -85424-2 0  9991", "line2": "2 66887  53.1554  46.0719 0000634  87.4211 314.8449 15.79792615  3315"}}, "geometry": {"type": "Point", "coordinates": [43.591194102869416, 0.44091135191238046]}}, {"type": "Feature", "properties": {"norad_id": 66888, "name": "STARLINK-35919", "group": "last-30-days", "lat": 2.215170617660598, "lon": 44.91767906772145, "alt_km": 336.5318202392882, "timestamp": "2025-12-18T19:29:51.287964+00:00", "meta": {"OBJECT_NAME": "STARLINK-35919", "OBJECT_ID": "2025-283L", "EPOCH": "2025-12-18T06:00:02.999808", "MEAN_MOTION": 15.79752243, "ECCENTRICITY": 9.284e-05, "INCLINATION": 53.1552, "RA_OF_ASC_NODE": 46.0667, "ARG_OF_PERICENTER": 74.1516, "MEAN_ANOMALY": 330.4259, "EPHEMERIS_TYPE": 0, "CLASSIFICATION_TYPE": "U", "NORAD_CAT_ID": 66888, "ELEMENT_SET_NO": 999, "REV_AT_EPOCH": 331, "BSTAR": -0.0086038398, "MEAN_MOTION_DOT": -0.01431103, "MEAN_MOTION_DDOT": 0}, "tle": {"line1": "1 66888U 25283L   25352.25003472 -.01431103  00000+0 -86038-2 0  9997", "line2": "2 66888  53.1552  46.0667 0000928  74.1516 330.4259 15.79752243  3319"}}, "geometry": {"type": "Point", "coordinates": [44.91767906772145, 2.215170617660598]}}, {"type": "Feature", "properties": {"norad_id": 66889, "name": "STARLINK-35852", "group": "last-30-days", "lat": 4.102500326783264, "lon": 46.33324711387236, "alt_km": 336.4525337378509, "timestamp": "2025-12-18T19:29:51.287974+00:00", "meta": {"OBJECT_NAME": "STARLINK-35852", "OBJECT_ID": "2025-283M", "EPOCH": "2025-12-18T06:00:02.999808", "MEAN_MOTION": 15.79688246, "ECCENTRICITY": 0.00010682, "INCLINATION": 53.1545, "RA_OF_ASC_NODE": 46.061, "ARG_OF_PERICENTER": 63.3756, "MEAN_ANOMALY": 343.7083, "EPHEMERIS_TYPE": 0, "CLASSIFICATION_TYPE": "U", "NORAD_CAT_ID": 66889, "ELEMENT_SET_NO": 999, "REV_AT_EPOCH": 331, "BSTAR": -0.0087035797, "MEAN_MOTION_DOT": -0.01442104, "MEAN_MOTION_DDOT": 0}, "tle": {"line1": "1 66889U 25283M   25352.25003472 -.01442104  00000+0 -87036-2 0  9990", "line2": "2 66889  53.1545  46.0610 0001068  63.3756 343.7083 15.79688246  3315"}}, "geometry": {"type": "Point", "coordinates": [46.33324711387236, 4.102500326783264]}}, {"type": "Feature", "properties": {"norad_id": 66890, "name": "STARLINK-35885", "group": "last-30-days", "lat": 5.939027867848241, "lon": 47.71975937112901, "alt_km": 336.45420124533575, "timestamp": "2025-12-18T19:29:51.287987+00:00", "meta": {"OBJECT_NAME": "STARLINK-35885", "OBJECT_ID": "2025-283N", "EPOCH": "2025-12-18T06:00:02.999808", "MEAN_MOTION": 15.79630873, "ECCENTRICITY": 0.0001011, "INCLINATION": 53.1549, "RA_OF_ASC_NODE": 46.0563, "ARG_OF_PERICENTER": 72.5143, "MEAN_ANOMALY": 336.9953, "EPHEMERIS_TYPE": 0, "CLASSIFICATION_TYPE": "U", "NORAD_CAT_ID": 66890, "ELEMENT_SET_NO": 999, "REV_AT_EPOCH": 331, "BSTAR": -0.0087749391, "MEAN_MOTION_DOT": -0.01449134, "MEAN_MOTION_DDOT": 0}, "tle": {"line1": "1 66890U 25283N   25352.25003472 -.01449134  00000+0 -87749-2 0  9993", "line2": "2 66890  53.1549  46.0563 0001011  72.5143 336.9953 15.79630873  3311"}}, "geometry": {"type": "Point", "coordinates": [47.71975937112901, 5.939027867848241]}}, {"type": "Feature", "properties": {"norad_id": 66891, "name": "STARLINK-35855", "group": "last-30-days", "lat": 7.78611607236354, "lon": 49.12608058312289, "alt_km": 336.3480683169, "timestamp": "2025-12-18T19:29:51.287997+00:00", "meta": {"OBJECT_NAME": "STARLINK-35855", "OBJECT_ID": "2025-283P", "EPOCH": "2025-12-18T06:00:02.999808", "MEAN_MOTION": 15.79569716, "ECCENTRICITY": 0.00012124, "INCLINATION": 53.1551, "RA_OF_ASC_NODE": 46.0513, "ARG_OF_PERICENTER": 75.9164, "MEAN_ANOMALY": 336.0502, "EPHEMERIS_TYPE": 0, "CLASSIFICATION_TYPE": "U", "NORAD_CAT_ID": 66891, "ELEMENT_SET_NO": 999, "REV_AT_EPOCH": 331, "BSTAR": -0.0088660279, "MEAN_MOTION_DOT": -0.01458918, "MEAN_MOTION_DDOT": 0}, "tle": {"line1": "1 66891U 25283P   25352.25003472 -.01458918  00000+0 -88660-2 0  9997", "line2": "2 66891  53.1551  46.0513 0001212  75.9164 336.0502 15.79569716  3311"}}, "geometry": {"type": "Point", "coordinates": [49.12608058312289, 7.78611607236354]}}, {"type": "Feature", "properties": {"norad_id": 66892, "name": "STARLINK-35883", "group": "last-30-days", "lat": 9.60361813416738, "lon": 50.524762127064854, "alt_km": 336.3494189058865, "timestamp": "2025-12-18T19:29:51.288008+00:00", "meta": {"OBJECT_NAME": "STARLINK-35883", "OBJECT_ID": "2025-283Q", "EPOCH": "2025-12-18T06:00:02.999808", "MEAN_MOTION": 15.79516527, "ECCENTRICITY": 6.409e-05, "INCLINATION": 53.1578, "RA_OF_ASC_NODE": 46.0461, "ARG_OF_PERICENTER": 85.3991, "MEAN_ANOMALY": 328.9606, "EPHEMERIS_TYPE": 0, "CLASSIFICATION_TYPE": "U", "NORAD_CAT_ID": 66892, "ELEMENT_SET_NO": 999, "REV_AT_EPOCH": 325, "BSTAR": -0.0089168166, "MEAN_MOTION_DOT": -0.01462772, "MEAN_MOTION_DDOT": 0}, "tle": {"line1": "1 66892U 25283Q   25352.25003472 -.01462772  00000+0 -89168-2 0  9995", "line2": "2 66892  53.1578  46.0461 0000640  85.3991 328.9606 15.79516527  3250"}}, "geometry": {"type": "Point", "coordinates": [50.524762127064854, 9.60361813416738]}}, {"type": "Feature", "properties": {"norad_id": 66893, "name": "STARLINK-36033", "group": "last-30-days", "lat": 11.37202616427321, "lon": 51.90561061210245, "alt_km": 336.2277436706454, "timestamp": "2025-12-18T19:29:51.288017+00:00", "meta": {"OBJECT_NAME": "STARLINK-36033", "OBJECT_ID": "2025-283R", "EPOCH": "2025-12-18T06:00:02.999808", "MEAN_MOTION": 15.79469826, "ECCENTRICITY": 7.061e-05, "INCLINATION": 53.1547, "RA_OF_ASC_NODE": 46.041, "ARG_OF_PERICENTER": 86.3858, "MEAN_ANOMALY": 330.3113, "EPHEMERIS_TYPE": 0, "CLASSIFICATION_TYPE": "U", "NORAD_CAT_ID": 66893, "ELEMENT_SET_NO": 999, "REV_AT_EPOCH": 331, "BSTAR": -0.0089921524, "MEAN_MOTION_DOT": -0.01470929, "MEAN_MOTION_DDOT": 0}, "tle": {"line1": "1 66893U 25283R   25352.25003472 -.01470929  00000+0 -89922-2 0  9997", "line2": "2 66893  53.1547  46.0410 0000706  86.3858 330.3113 15.79469826  3313"}}, "geometry": {"type": "Point", "coordinates": [51.90561061210245, 11.37202616427321]}}, {"type": "Feature", "properties": {"norad_id": 66894, "name": "STARLINK-35718", "group": "last-30-days", "lat": 13.306048966155497, "lon": 53.441075902920765, "alt_km": 336.0237056138594, "timestamp": "2025-12-18T19:29:51.288027+00:00", "meta": {"OBJECT_NAME": "STARLINK-35718", "OBJECT_ID": "2025-283S", "EPOCH": "2025-12-18T06:00:02.999808", "MEAN_MOTION": 15.79382677, "ECCENTRICITY": 0.00011321, "INCLINATION": 53.158, "RA_OF_ASC_NODE": 46.0363, "ARG_OF_PERICENTER": 67.6207, "MEAN_ANOMALY": 351.7282, "EPHEMERIS_TYPE": 0, "CLASSIFICATION_TYPE": "U", "NORAD_CAT_ID": 66894, "ELEMENT_SET_NO": 999, "REV_AT_EPOCH": 331, "BSTAR": -0.0091408925, "MEAN_MOTION_DOT": -0.01487366, "MEAN_MOTION_DDOT": 0}, "tle": {"line1": "1 66894U 25283S   25352.25003472 -.01487366  00000+0 -91409-2 0  9994", "line2": "2 66894  53.1580  46.0363 0001132  67.6207 351.7282 15.79382677  3314"}}, "geometry": {"type": "Point", "coordinates": [53.441075902920765, 13.306048966155497]}}, {"type": "Feature", "properties": {"norad_id": 66895, "name": "STARLINK-35971", "group": "last-30-days", "lat": 16.86883275252588, "lon": 56.358301631932584, "alt_km": 335.828131726159, "timestamp": "2025-12-18T19:29:51.288039+00:00", "meta": {"OBJECT_NAME": "STARLINK-35971", "OBJECT_ID": "2025-283T", "EPOCH": "2025-12-18T06:00:02.999808", "MEAN_MOTION": 15.79278198, "ECCENTRICITY": 0.00010302, "INCLINATION": 53.1573, "RA_OF_ASC_NODE": 46.0252, "ARG_OF_PERICENTER": 60.5021, "MEAN_ANOMALY": 3.6418, "EPHEMERIS_TYPE": 0, "CLASSIFICATION_TYPE": "U", "NORAD_CAT_ID": 66895, "ELEMENT_SET_NO": 999, "REV_AT_EPOCH": 331, "BSTAR": -0.0093916911, "MEAN_MOTION_DOT": -0.01516717, "MEAN_MOTION_DDOT": 0}, "tle": {"line1": "1 66895U 25283T   25352.25003472 -.01516717  00000+0 -93917-2 0  9994", "line2": "2 66895  53.1573  46.0252 0001030  60.5021   3.6418 15.79278198  3313"}}, "geometry": {"type": "Point", "coordinates": [56.358301631932584, 16.86883275252588]}}, {"type": "Feature", "properties": {"norad_id": 66896, "name": "STARLINK-35791", "group": "last-30-days", "lat": 15.138172361171431, "lon": 54.924711019626095, "alt_km": 335.99611778915187, "timestamp": "2025-12-18T19:29:51.288049+00:00", "meta": {"OBJECT_NAME": "STARLINK-35791", "OBJECT_ID": "2025-283U", "EPOCH": "2025-12-18T06:00:02.999808", "MEAN_MOTION": 15.79319948, "ECCENTRICITY": 9.605e-05, "INCLINATION": 53.1576, "RA_OF_ASC_NODE": 46.0302, "ARG_OF_PERICENTER": 77.5975, "MEAN_ANOMALY": 344.2234, "EPHEMERIS_TYPE": 0, "CLASSIFICATION_TYPE": "U", "NORAD_CAT_ID": 66896, "ELEMENT_SET_NO": 999, "REV_AT_EPOCH": 331, "BSTAR": -0.0092458323, "MEAN_MOTION_DOT": -0.01498469, "MEAN_MOTION_DDOT": 0}, "tle": {"line1": "1 66896U 25283U   25352.25003472 -.01498469  00000+0 -92458-2 0  9997", "line2": "2 66896  53.1576  46.0302 0000960  77.5975 344.2234 15.79319948  3319"}}, "geometry": {"type": "Point", "coordinates": [54.924711019626095, 15.138172361171431]}}]}